[
    {
        "Altitude(m)": 555450.6414728647,
        "Argument of Periapsis(deg)": 0.013245982221427002,
        "Eccentricity": 0.0,
        "Inclination(deg)": 53.0,
        "Latitude(deg)": -7.213749804034053,
        "Longitude(deg)": 32.98019328967955,
        "Mean Anomaly(deg)": -8.907714264844838,
        "RAAN(deg)": 139.98028673705602,
        "Satellite Name": "Starlink Shell 1 636",
        "Satellite Number": 636,
        "Semi-Major Axis(m)": 6931778.249405717,
        "Time(s)": 380
    },
    {
        "Altitude(m)": 555347.9057363301,
        "Argument of Periapsis(deg)": 0.013594560700938237,
        "Eccentricity": 0.0,
        "Inclination(deg)": 53.0,
        "Latitude(deg)": -6.7121491081875355,
        "Longitude(deg)": 33.32102536305827,
        "Mean Anomaly(deg)": -8.280883061288092,
        "RAAN(deg)": 139.97976796697856,
        "Satellite Name": "Starlink Shell 1 636",
        "Satellite Number": 636,
        "Semi-Major Axis(m)": 6931778.249405717,
        "Time(s)": 390
    },
    {
        "Altitude(m)": 555247.7420557659,
        "Argument of Periapsis(deg)": 0.013943139180449475,
        "Eccentricity": 0.0,
        "Inclination(deg)": 53.0,
        "Latitude(deg)": -6.210229168011157,
        "Longitude(deg)": 33.66108536176896,
        "Mean Anomaly(deg)": -7.654051857731422,
        "RAAN(deg)": 139.97924919690107,
        "Satellite Name": "Starlink Shell 1 636",
        "Satellite Number": 636,
        "Semi-Major Axis(m)": 6931778.249405717,
        "Time(s)": 400
    },
    {
        "Altitude(m)": 555150.1754842248,
        "Argument of Periapsis(deg)": 0.014291717659960712,
        "Eccentricity": 0.0,
        "Inclination(deg)": 53.0,
        "Latitude(deg)": -5.7080138019610445,
        "Longitude(deg)": 34.00043332648135,
        "Mean Anomaly(deg)": -7.027220654174675,
        "RAAN(deg)": 139.9787304268236,
        "Satellite Name": "Starlink Shell 1 636",
        "Satellite Number": 636,
        "Semi-Major Axis(m)": 6931778.249405717,
        "Time(s)": 410
    },
    {
        "Altitude(m)": 555055.2297858447,
        "Argument of Periapsis(deg)": 0.014640296139471948,
        "Eccentricity": 0.0,
        "Inclination(deg)": 53.0,
        "Latitude(deg)": -5.2055266848547275,
        "Longitude(deg)": 34.33912848612545,
        "Mean Anomaly(deg)": -6.4003894506179035,
        "RAAN(deg)": 139.97821165674614,
        "Satellite Name": "Starlink Shell 1 636",
        "Satellite Number": 636,
        "Semi-Major Axis(m)": 6931778.249405717,
        "Time(s)": 420
    },
    {
        "Altitude(m)": 554962.9274267135,
        "Argument of Periapsis(deg)": 0.014988874618983185,
        "Eccentricity": 0.0,
        "Inclination(deg)": 53.0,
        "Latitude(deg)": -4.702791360310878,
        "Longitude(deg)": 34.677229787843686,
        "Mean Anomaly(deg)": -5.773558247061233,
        "RAAN(deg)": 139.97769288666865,
        "Satellite Name": "Starlink Shell 1 636",
        "Satellite Number": 636,
        "Semi-Major Axis(m)": 6931778.249405717,
        "Time(s)": 430
    },
    {
        "Altitude(m)": 554873.2895664024,
        "Argument of Periapsis(deg)": 0.015337453098494424,
        "Eccentricity": 0.0,
        "Inclination(deg)": 53.0,
        "Latitude(deg)": -4.199831253062758,
        "Longitude(deg)": 35.014796426872515,
        "Mean Anomaly(deg)": -5.146727043504589,
        "RAAN(deg)": 139.9771741165912,
        "Satellite Name": "Starlink Shell 1 636",
        "Satellite Number": 636,
        "Semi-Major Axis(m)": 6931778.249405717,
        "Time(s)": 440
    },
    {
        "Altitude(m)": 554786.33605016,
        "Argument of Periapsis(deg)": 0.01568603157800566,
        "Eccentricity": 0.0,
        "Inclination(deg)": 53.0,
        "Latitude(deg)": -3.696669681159524,
        "Longitude(deg)": 35.351886863485404,
        "Mean Anomaly(deg)": -4.519895839947842,
        "RAAN(deg)": 139.97665534651372,
        "Satellite Name": "Starlink Shell 1 636",
        "Satellite Number": 636,
        "Semi-Major Axis(m)": 6931778.249405717,
        "Time(s)": 450
    },
    {
        "Altitude(m)": 554702.0854017371,
        "Argument of Periapsis(deg)": 0.0160346100575169,
        "Eccentricity": 0.0,
        "Inclination(deg)": 53.0,
        "Latitude(deg)": -3.193329868061971,
        "Longitude(deg)": 35.68855935274932,
        "Mean Anomaly(deg)": -3.89306463639107,
        "RAAN(deg)": 139.97613657643623,
        "Satellite Name": "Starlink Shell 1 636",
        "Satellite Number": 636,
        "Semi-Major Axis(m)": 6931778.249405717,
        "Time(s)": 460
    },
    {
        "Altitude(m)": 554620.5548168899,
        "Argument of Periapsis(deg)": 0.016383188537028134,
        "Eccentricity": 0.0,
        "Inclination(deg)": 53.0,
        "Latitude(deg)": -2.689834954646056,
        "Longitude(deg)": 36.02487247422681,
        "Mean Anomaly(deg)": -3.2662334328344,
        "RAAN(deg)": 139.97561780635877,
        "Satellite Name": "Starlink Shell 1 636",
        "Satellite Number": 636,
        "Semi-Major Axis(m)": 6931778.249405717,
        "Time(s)": 470
    },
    {
        "Altitude(m)": 554541.7601575524,
        "Argument of Periapsis(deg)": 0.01673176701653937,
        "Eccentricity": 0.0,
        "Inclination(deg)": 53.0,
        "Latitude(deg)": -2.186208011128299,
        "Longitude(deg)": 36.36088414875719,
        "Mean Anomaly(deg)": -2.6394022292777555,
        "RAAN(deg)": 139.9750990362813,
        "Satellite Name": "Starlink Shell 1 636",
        "Satellite Number": 636,
        "Semi-Major Axis(m)": 6931778.249405717,
        "Time(s)": 480
    },
    {
        "Altitude(m)": 554465.7159466562,
        "Argument of Periapsis(deg)": 0.017080345496050607,
        "Eccentricity": 0.0,
        "Inclination(deg)": 53.0,
        "Latitude(deg)": -1.682472048920084,
        "Longitude(deg)": 36.69665216806943,
        "Mean Anomaly(deg)": -2.012571025720983,
        "RAAN(deg)": 139.97458026620382,
        "Satellite Name": "Starlink Shell 1 636",
        "Satellite Number": 636,
        "Semi-Major Axis(m)": 6931778.249405717,
        "Time(s)": 490
    },
    {
        "Altitude(m)": 554392.4353636462,
        "Argument of Periapsis(deg)": 0.017428923975561842,
        "Eccentricity": 0.0,
        "Inclination(deg)": 53.0,
        "Latitude(deg)": -1.1786500324242244,
        "Longitude(deg)": 37.03223472436002,
        "Mean Anomaly(deg)": -1.3857398221642367,
        "RAAN(deg)": 139.97406149612635,
        "Satellite Name": "Starlink Shell 1 636",
        "Satellite Number": 636,
        "Semi-Major Axis(m)": 6931778.249405717,
        "Time(s)": 500
    },
    {
        "Altitude(m)": 554321.9302406445,
        "Argument of Periapsis(deg)": 0.01777750245507308,
        "Eccentricity": 0.0,
        "Inclination(deg)": 53.0,
        "Latitude(deg)": -0.6747648907869496,
        "Longitude(deg)": 37.367689426971104,
        "Mean Anomaly(deg)": -0.7589086186075918,
        "RAAN(deg)": 139.9735427260489,
        "Satellite Name": "Starlink Shell 1 636",
        "Satellite Number": 636,
        "Semi-Major Axis(m)": 6931778.249405717,
        "Time(s)": 510
    },
    {
        "Altitude(m)": 554254.2110593121,
        "Argument of Periapsis(deg)": 0.018126080934584315,
        "Eccentricity": 0.0,
        "Inclination(deg)": 53.0,
        "Latitude(deg)": -0.17083952961233406,
        "Longitude(deg)": 37.70307383192134,
        "Mean Anomaly(deg)": -0.13207741505079454,
        "RAAN(deg)": 139.9730239559714,
        "Satellite Name": "Starlink Shell 1 636",
        "Satellite Number": 636,
        "Semi-Major Axis(m)": 6931778.249405717,
        "Time(s)": 520
    },
    {
        "Altitude(m)": 554189.2869483548,
        "Argument of Periapsis(deg)": 0.018474659414095554,
        "Eccentricity": 0.0,
        "Inclination(deg)": 53.0,
        "Latitude(deg)": 0.3331031573463963,
        "Longitude(deg)": 38.03844597142366,
        "Mean Anomaly(deg)": 0.49475378850585017,
        "RAAN(deg)": 139.97250518589394,
        "Satellite Name": "Starlink Shell 1 636",
        "Satellite Number": 636,
        "Semi-Major Axis(m)": 6931778.249405717,
        "Time(s)": 530
    },
    {
        "Altitude(m)": 554127.1656817548,
        "Argument of Periapsis(deg)": 0.018823237893606792,
        "Eccentricity": 0.0,
        "Inclination(deg)": 53.0,
        "Latitude(deg)": 0.8370402765072931,
        "Longitude(deg)": 38.373863370526166,
        "Mean Anomaly(deg)": 1.1215849920625967,
        "RAAN(deg)": 139.97198641581647,
        "Satellite Name": "Starlink Shell 1 636",
        "Satellite Number": 636,
        "Semi-Major Axis(m)": 6931778.249405717,
        "Time(s)": 540
    },
    {
        "Altitude(m)": 554067.8536776354,
        "Argument of Periapsis(deg)": 0.019171816373118027,
        "Eccentricity": 0.0,
        "Inclination(deg)": 53.0,
        "Latitude(deg)": 1.340948922782518,
        "Longitude(deg)": 38.709383576627175,
        "Mean Anomaly(deg)": 1.7484161956192668,
        "RAAN(deg)": 139.97146764573898,
        "Satellite Name": "Starlink Shell 1 636",
        "Satellite Number": 636,
        "Semi-Major Axis(m)": 6931778.249405717,
        "Time(s)": 550
    },
    {
        "Altitude(m)": 554011.3559978147,
        "Argument of Periapsis(deg)": 0.019520394852629266,
        "Eccentricity": 0.0,
        "Inclination(deg)": 53.0,
        "Latitude(deg)": 1.8448061678927128,
        "Longitude(deg)": 39.045064689002466,
        "Mean Anomaly(deg)": 2.3752473991760135,
        "RAAN(deg)": 139.97094887566152,
        "Satellite Name": "Starlink Shell 1 636",
        "Satellite Number": 636,
        "Semi-Major Axis(m)": 6931778.249405717,
        "Time(s)": 560
    }
]